*******************************************************************************
Ephemeris / WWW_USER Mon Mar 24 08:08:57 2025 Pasadena, USA      / Horizons    
*******************************************************************************
Target body name: (2018 VX1)                      {source: JPL#7}
Center body name: Earth (399)                     {source: DE441}
Center-site name: Mauna Kea
*******************************************************************************
Start time      : A.D. 2018-Sep-25 04:25:00.0000 UT      
Stop  time      : A.D. 2018-Sep-25 16:02:00.0000 UT      
Step-size       : 1 minutes
*******************************************************************************
Target pole/equ : undefined
Target radii    : undefined                                                    
Center geodetic : 204.5278, 19.8260847, 4.21024   {E-lon(deg),Lat(deg),Alt(km)}
Center cylindric: 204.5278, 6006.35451, 2151.0229 {E-lon(deg),Dxy(km),Dz(km)}
Center pole/equ : ITRF93                          {East-longitude positive}
Center radii    : 6378.137, 6378.137, 6356.752 km {Equator_a, b, pole_c}       
Target primary  : Sun
Vis. interferer : MOON (R_eq= 1737.400) km        {source: DE441}
Rel. light bend : Sun                             {source: DE441}
Rel. lght bnd GM: 1.3271E+11 km^3/s^2                                          
Small-body perts: Yes                             {source: SB441-N16}
Atmos refraction: NO (AIRLESS)
RA format       : HMS
Time format     : CAL 
Calendar mode   : Mixed Julian/Gregorian
RTS-only print  : NO       
EOP file        : eop.250321.p250617                                           
EOP coverage    : DATA-BASED 1962-JAN-20 TO 2025-MAR-21. PREDICTS-> 2025-JUN-16
Units conversion: 1 au= 149597870.700 km, c= 299792.458 km/s, 1 day= 86400.0 s 
Table cut-offs 1: Elevation (-90.0deg=NO ),Airmass (>38.000=NO), Daylight (YES)
Table cut-offs 2: Solar elongation (  0.0,180.0=NO ),Local Hour Angle( 0.0=NO )
Table cut-offs 3: RA/DEC angular rate (     0.0=NO )                           
*******************************************************************************
Initial IAU76/J2000 heliocentric ecliptic osculating elements (au, days, deg.):
  EPOCH=  2458429.5 ! 2018-Nov-07.00 (TDB)         Residual RMS= .34243        
   EC= .3094465550301519   QR= .9449639043218054   TP= 2458464.0659233886      
   OM= 45.67874041641947   W=  38.97310343924259   IN= 3.356915226222919       
  Equivalent ICRF heliocentric cartesian coordinates (au, au/d):
   X= 7.224620352366717E-01  Y= 6.383229877646874E-01  Z= 2.747435985069854E-01
  VX=-1.546092850205216E-02 VY= 1.016746642579675E-02 VZ= 5.632057443641291E-03
Asteroid physical parameters (km, seconds, rotational period in hours):        
   GM= n.a.                RAD= n.a.               ROTPER= n.a.                
   H= 27.5                 G= .150                 B-V= n.a.                   
                           ALBEDO= n.a.            STYP= n.a.                  
*******************************************************************************
 Date__(UT)__HR:MN     R.A._________(ICRF)_________DEC
******************************************************
$$SOE
 2018-Sep-25 14:40  m  01 17 50.071497 -07 24 34.57236
 2018-Sep-25 14:41  m  01 17 50.073380 -07 24 34.82351
 2018-Sep-25 14:42  m  01 17 50.075307 -07 24 35.07459
 2018-Sep-25 14:43  m  01 17 50.077277 -07 24 35.32559
 2018-Sep-25 14:44  m  01 17 50.079291 -07 24 35.57653
 2018-Sep-25 14:45  m  01 17 50.081348 -07 24 35.82739
 2018-Sep-25 14:46  m  01 17 50.083449 -07 24 36.07818
 2018-Sep-25 14:47  m  01 17 50.085594 -07 24 36.32891
 2018-Sep-25 14:48  m  01 17 50.087784 -07 24 36.57957
 2018-Sep-25 14:49  m  01 17 50.090017 -07 24 36.83015
 2018-Sep-25 14:50  m  01 17 50.092295 -07 24 37.08067
 2018-Sep-25 14:51  m  01 17 50.094618 -07 24 37.33112
 2018-Sep-25 14:52  m  01 17 50.096986 -07 24 37.58151
 2018-Sep-25 14:53  m  01 17 50.099399 -07 24 37.83182
 2018-Sep-25 14:54  m  01 17 50.101856 -07 24 38.08207
 2018-Sep-25 14:55  m  01 17 50.104359 -07 24 38.33226
 2018-Sep-25 14:56  m  01 17 50.106908 -07 24 38.58238
 2018-Sep-25 14:57  m  01 17 50.109502 -07 24 38.83243
 2018-Sep-25 14:58  m  01 17 50.112142 -07 24 39.08241
 2018-Sep-25 14:59 Am  01 17 50.114828 -07 24 39.33234
 2018-Sep-25 15:00 Am  01 17 50.117560 -07 24 39.58219
 2018-Sep-25 15:01 Am  01 17 50.120338 -07 24 39.83199
 2018-Sep-25 15:02 Am  01 17 50.123162 -07 24 40.08172
 2018-Sep-25 15:03 Am  01 17 50.126033 -07 24 40.33138
 2018-Sep-25 15:04 Am  01 17 50.128951 -07 24 40.58099
 2018-Sep-25 15:05 Am  01 17 50.131916 -07 24 40.83053
 2018-Sep-25 15:06 Am  01 17 50.134927 -07 24 41.08000
 2018-Sep-25 15:07 Am  01 17 50.137986 -07 24 41.32942
 2018-Sep-25 15:08 Am  01 17 50.141092 -07 24 41.57878
 2018-Sep-25 15:09 Am  01 17 50.144245 -07 24 41.82807
 2018-Sep-25 15:10 Am  01 17 50.147446 -07 24 42.07731
 2018-Sep-25 15:11 Am  01 17 50.150694 -07 24 42.32648
 2018-Sep-25 15:12 Am  01 17 50.153991 -07 24 42.57559
 2018-Sep-25 15:13 Am  01 17 50.157335 -07 24 42.82465
 2018-Sep-25 15:14 Am  01 17 50.160728 -07 24 43.07364
 2018-Sep-25 15:15 Am  01 17 50.164169 -07 24 43.32258
 2018-Sep-25 15:16 Am  01 17 50.167658 -07 24 43.57146
 2018-Sep-25 15:17 Am  01 17 50.171195 -07 24 43.82028
 2018-Sep-25 15:18 Am  01 17 50.174782 -07 24 44.06904
 2018-Sep-25 15:19 Am  01 17 50.178417 -07 24 44.31775
 2018-Sep-25 15:20 Am  01 17 50.182101 -07 24 44.56640
 2018-Sep-25 15:21 Am  01 17 50.185835 -07 24 44.81499
 2018-Sep-25 15:22 Am  01 17 50.189617 -07 24 45.06353
 2018-Sep-25 15:23 Am  01 17 50.193449 -07 24 45.31201
 2018-Sep-25 15:24 Nm  01 17 50.197330 -07 24 45.56044
 2018-Sep-25 15:25 Nm  01 17 50.201261 -07 24 45.80882
 2018-Sep-25 15:26 Nm  01 17 50.205242 -07 24 46.05714
 2018-Sep-25 15:27 Nm  01 17 50.209272 -07 24 46.30540
 2018-Sep-25 15:28 Nm  01 17 50.213353 -07 24 46.55361
 2018-Sep-25 15:29 Nm  01 17 50.217483 -07 24 46.80177
 2018-Sep-25 15:30 Nm  01 17 50.221664 -07 24 47.04988
 2018-Sep-25 15:31 Nm  01 17 50.225895 -07 24 47.29794
 2018-Sep-25 15:32 Nm  01 17 50.230177 -07 24 47.54594
 2018-Sep-25 15:33 Nm  01 17 50.234509 -07 24 47.79389
 2018-Sep-25 15:34 Nm  01 17 50.238893 -07 24 48.04179
 2018-Sep-25 15:35 Nm  01 17 50.243326 -07 24 48.28964
 2018-Sep-25 15:36 Nm  01 17 50.247811 -07 24 48.53745
 2018-Sep-25 15:37 Nm  01 17 50.252347 -07 24 48.78520
 2018-Sep-25 15:38 Nm  01 17 50.256935 -07 24 49.03290
 2018-Sep-25 15:39 Nm  01 17 50.261573 -07 24 49.28055
 2018-Sep-25 15:40 Nm  01 17 50.266263 -07 24 49.52816
 2018-Sep-25 15:41 Nm  01 17 50.271005 -07 24 49.77572
 2018-Sep-25 15:42 Nm  01 17 50.275798 -07 24 50.02323
 2018-Sep-25 15:43 Nm  01 17 50.280643 -07 24 50.27069
 2018-Sep-25 15:44 Nm  01 17 50.285540 -07 24 50.51811
 2018-Sep-25 15:45 Nm  01 17 50.290489 -07 24 50.76548
 2018-Sep-25 15:46 Nm  01 17 50.295490 -07 24 51.01281
 2018-Sep-25 15:47 Nm  01 17 50.300543 -07 24 51.26009
 2018-Sep-25 15:48 Nm  01 17 50.305649 -07 24 51.50733
 2018-Sep-25 15:49 Nm  01 17 50.310807 -07 24 51.75452
 2018-Sep-25 15:50 Cm  01 17 50.316017 -07 24 52.00167
 2018-Sep-25 15:51 Cm  01 17 50.321281 -07 24 52.24877
 2018-Sep-25 15:52 Cm  01 17 50.326597 -07 24 52.49583
 2018-Sep-25 15:53 Cm  01 17 50.331965 -07 24 52.74285
 2018-Sep-25 15:54 Cm  01 17 50.337387 -07 24 52.98983
 2018-Sep-25 15:55 Cm  01 17 50.342862 -07 24 53.23677
 2018-Sep-25 15:56 Cm  01 17 50.348390 -07 24 53.48366
 2018-Sep-25 15:57 Cm  01 17 50.353971 -07 24 53.73051
 2018-Sep-25 15:58 Cm  01 17 50.359606 -07 24 53.97733
 2018-Sep-25 15:59 Cm  01 17 50.365294 -07 24 54.22410
 2018-Sep-25 16:00 Cm  01 17 50.371036 -07 24 54.47083
 2018-Sep-25 16:01 Cm  01 17 50.376831 -07 24 54.71753
 2018-Sep-25 16:02 Cm  01 17 50.382680 -07 24 54.96419
